PROGRESS-MS 32          
1 65586U 25204A   25339.25291940  .00014736  00000+0  27197-3 0  9996
2 65586  51.6297 179.5463 0003585 206.2517 153.8291 15.49328184   274
CYGNUS NG-23            
1 65616U 25208A   25339.25291940  .00014736  00000+0  27197-3 0  9994
2 65616  51.6297 179.5463 0003585 206.2517 153.8291 15.49328184   223
DRAGONFLY               
1 65729U 98067XH  25338.78355088  .00218353  00000+0  18217-2 0  9996
2 65729  51.6240 176.4076 0006568 226.1978 133.8476 15.68817694 11919
1998-067XK              
1 65731U 98067XK  25339.26231815  .00118787  00000+0  12222-2 0  9994
2 65731  51.6276 175.1175 0005713 201.1610 158.9149 15.63965392 11979
RSP-03                  
1 65732U 98067XL  25339.27966488  .00153130  00000+0  14260-2 0  9992
2 65732  51.6250 174.4773 0006353 204.5134 155.5560 15.66336847 11999
GHS-01                  
1 65733U 98067XM  25338.81146514  .00266248  00000+0  20185-2 0  9990
2 65733  51.6270 175.8507 0006907 226.7602 133.2820 15.70973864 11930
YOTSUBA-KULOVER         
1 65941U 98067XN  25338.57046419  .00105594  00000+0  13677-2 0  9991
2 65941  51.6276 180.9943 0002055 178.3938 181.7061 15.58052031  8584
BOTAN                   
1 65942U 98067XP  25338.65604502  .00149041  00000+0  17279-2 0  9991
2 65942  51.6268 180.0664 0004264 180.2775 179.8217 15.60784931  8600
E-KAGAKU-1              
1 65943U 98067XQ  25338.82690365  .00103476  00000+0  13396-2 0  9991
2 65943  51.6297 179.7082 0003572 159.4273 200.6864 15.58070378  8627
HRC MONOBLOCK CAMERA    
1 66052U 98067XR  25339.25467103  .00048428  00000+0  75336-3 0  9991
2 66052  51.6284 178.8082 0004249 154.3849 205.7352 15.53416514  7673
HTV-X1                  
1 66174U 25241A   25339.25291940  .00014736  00000+0  27197-3 0  9991
2 66174  51.6297 179.5463 0003585 206.2517 153.8291 15.49328184   515
